PLEIADES NEO 3          
1 48268U 21034A   26187.29730568  .00001166  00000+0  15471-3 0  9996
2 48268  97.8934 261.7891 0001352  91.8914 268.2454 14.81674870280486
PLEIADES NEO 4          
1 49070U 21073E   26187.33106002  .00000235  00000+0  36478-4 0  9993
2 49070  97.8933 261.8188 0001324  90.9012 269.2353 14.81676930264205
