{"fetched_at":"2026-07-06T18:35:47.922Z","source":"https://celestrak.org/NORAD/elements/gp.php?NAME=PLEIADES&FORMAT=JSON","constellation":"pleiades-neo","records":[{"OBJECT_NAME":"PLEIADES NEO 3","OBJECT_ID":"2021-034A","EPOCH":"2026-07-06T07:08:07.210752","CLASSIFICATION_TYPE":"U","MEAN_MOTION":14.8167487,"ECCENTRICITY":0.00013525,"INCLINATION":97.8934,"RA_OF_ASC_NODE":261.7891,"ARG_OF_PERICENTER":91.8914,"MEAN_ANOMALY":268.2454,"EPHEMERIS_TYPE":0,"NORAD_CAT_ID":48268,"ELEMENT_SET_NO":999,"REV_AT_EPOCH":28048,"BSTAR":0.00015470817,"MEAN_MOTION_DOT":0.00001166,"MEAN_MOTION_DDOT":0},{"OBJECT_NAME":"PLEIADES NEO 4","OBJECT_ID":"2021-073E","EPOCH":"2026-07-06T07:56:43.585728","CLASSIFICATION_TYPE":"U","MEAN_MOTION":14.8167693,"ECCENTRICITY":0.00013248,"INCLINATION":97.8933,"RA_OF_ASC_NODE":261.8188,"ARG_OF_PERICENTER":90.9012,"MEAN_ANOMALY":269.2353,"EPHEMERIS_TYPE":0,"NORAD_CAT_ID":49070,"ELEMENT_SET_NO":999,"REV_AT_EPOCH":26420,"BSTAR":0.000036478138,"MEAN_MOTION_DOT":0.00000235,"MEAN_MOTION_DDOT":0}]}
